CCSDS_OMM_VERS = 2.0
CREATION_DATE  = 
ORIGINATOR     = 

OBJECT_NAME    = STARLINK-36597
OBJECT_ID      = 2026-018AA
CENTER_NAME    = EARTH
REF_FRAME      = TEME
TIME_SYSTEM    = UTC
MEAN_ELEMENT_THEORY = SGP/SGP4

EPOCH          = 2026-02-09T06:00:02.000160
MEAN_MOTION    = 15.87622987
ECCENTRICITY   = .00016525
INCLINATION    = 97.2748
RA_OF_ASC_NODE = 104.6243
ARG_OF_PERICENTER = 74.2536
MEAN_ANOMALY   = 119.1016

EPHEMERIS_TYPE = 0
CLASSIFICATION_TYPE = U
NORAD_CAT_ID   = 67613
ELEMENT_SET_NO = 999
REV_AT_EPOCH   = 278
BSTAR          = -.7287944E-2
MEAN_MOTION_DOT = -.1681298E-1
MEAN_MOTION_DDOT = 0

CCSDS_OMM_VERS = 2.0
CREATION_DATE  = 
ORIGINATOR     = 

OBJECT_NAME    = NEONSAT-1A
OBJECT_ID      = 2026-019A
CENTER_NAME    = EARTH
REF_FRAME      = TEME
TIME_SYSTEM    = UTC
MEAN_ELEMENT_THEORY = SGP/SGP4

EPOCH          = 2026-02-09T07:22:02.498304
MEAN_MOTION    = 15.07580624
ECCENTRICITY   = .00120266
INCLINATION    = 97.4083
RA_OF_ASC_NODE = 164.9080
ARG_OF_PERICENTER = 271.8478
MEAN_ANOMALY   = 88.1373

EPHEMERIS_TYPE = 0
CLASSIFICATION_TYPE = U
NORAD_CAT_ID   = 67614
ELEMENT_SET_NO = 999
REV_AT_EPOCH   = 154
BSTAR          = .26652727E-3
MEAN_MOTION_DOT = .3999E-4
MEAN_MOTION_DDOT = 0

CCSDS_OMM_VERS = 2.0
CREATION_DATE  = 
ORIGINATOR     = 

OBJECT_NAME    = ELECTRON R/B
OBJECT_ID      = 2026-019B
CENTER_NAME    = EARTH
REF_FRAME      = TEME
TIME_SYSTEM    = UTC
MEAN_ELEMENT_THEORY = SGP/SGP4

EPOCH          = 2026-02-09T09:24:11.118240
MEAN_MOTION    = 16.08533771
ECCENTRICITY   = .0124407
INCLINATION    = 97.4236
RA_OF_ASC_NODE = 166.2645
ARG_OF_PERICENTER = 190.3164
MEAN_ANOMALY   = 169.5565

EPHEMERIS_TYPE = 0
CLASSIFICATION_TYPE = U
NORAD_CAT_ID   = 67615
ELEMENT_SET_NO = 999
REV_AT_EPOCH   = 163
BSTAR          = .14517E-2
MEAN_MOTION_DOT = .3992744E-1
MEAN_MOTION_DDOT = .21518E-5

CCSDS_OMM_VERS = 2.0
CREATION_DATE  = 
ORIGINATOR     = 

OBJECT_NAME    = ELECTRON KICK STAGE R/B
OBJECT_ID      = 2026-019C
CENTER_NAME    = EARTH
REF_FRAME      = TEME
TIME_SYSTEM    = UTC
MEAN_ELEMENT_THEORY = SGP/SGP4

EPOCH          = 2026-02-09T07:26:29.374944
MEAN_MOTION    = 15.59499129
ECCENTRICITY   = .01900269
INCLINATION    = 97.4053
RA_OF_ASC_NODE = 165.6630
ARG_OF_PERICENTER = 225.2776
MEAN_ANOMALY   = 133.2877

EPHEMERIS_TYPE = 0
CLASSIFICATION_TYPE = U
NORAD_CAT_ID   = 67616
ELEMENT_SET_NO = 999
REV_AT_EPOCH   = 159
BSTAR          = .18873042E-2
MEAN_MOTION_DOT = .366189E-2
MEAN_MOTION_DDOT = .38413971E-4

CCSDS_OMM_VERS = 2.0
CREATION_DATE  = 
ORIGINATOR     = 

OBJECT_NAME    = STARLINK-36548
OBJECT_ID      = 2026-020A
CENTER_NAME    = EARTH
REF_FRAME      = TEME
TIME_SYSTEM    = UTC
MEAN_ELEMENT_THEORY = SGP/SGP4

EPOCH          = 2026-02-09T06:00:02.000160
MEAN_MOTION    = 15.82248113
ECCENTRICITY   = .00017714
INCLINATION    = 42.9990
RA_OF_ASC_NODE = 315.1665
ARG_OF_PERICENTER = 286.1057
MEAN_ANOMALY   = 155.6379

EPHEMERIS_TYPE = 0
CLASSIFICATION_TYPE = U
NORAD_CAT_ID   = 67617
ELEMENT_SET_NO = 999
REV_AT_EPOCH   = 282
BSTAR          = -.10917909E-1
MEAN_MOTION_DOT = -.2012029E-1
MEAN_MOTION_DDOT = 0

CCSDS_OMM_VERS = 2.0
CREATION_DATE  = 
ORIGINATOR     = 

OBJECT_NAME    = STARLINK-36601
OBJECT_ID      = 2026-020B
CENTER_NAME    = EARTH
REF_FRAME      = TEME
TIME_SYSTEM    = UTC
MEAN_ELEMENT_THEORY = SGP/SGP4

EPOCH          = 2026-02-09T06:00:02.000160
MEAN_MOTION    = 15.82008048
ECCENTRICITY   = .00018081
INCLINATION    = 42.9989
RA_OF_ASC_NODE = 315.1583
ARG_OF_PERICENTER = 269.4537
MEAN_ANOMALY   = 175.2743

EPHEMERIS_TYPE = 0
CLASSIFICATION_TYPE = U
NORAD_CAT_ID   = 67618
ELEMENT_SET_NO = 999
REV_AT_EPOCH   = 282
BSTAR          = .16028549E-3
MEAN_MOTION_DOT = .33335E-3
MEAN_MOTION_DDOT = 0

CCSDS_OMM_VERS = 2.0
CREATION_DATE  = 
ORIGINATOR     = 

OBJECT_NAME    = STARLINK-36119
OBJECT_ID      = 2026-020C
CENTER_NAME    = EARTH
REF_FRAME      = TEME
TIME_SYSTEM    = UTC
MEAN_ELEMENT_THEORY = SGP/SGP4

EPOCH          = 2026-02-09T06:00:02.000160
MEAN_MOTION    = 15.82051612
ECCENTRICITY   = .00013993
INCLINATION    = 42.9990
RA_OF_ASC_NODE = 315.1528
ARG_OF_PERICENTER = 283.3694
MEAN_ANOMALY   = 163.5045

EPHEMERIS_TYPE = 0
CLASSIFICATION_TYPE = U
NORAD_CAT_ID   = 67619
ELEMENT_SET_NO = 999
REV_AT_EPOCH   = 282
BSTAR          = -.53063129E-3
MEAN_MOTION_DOT = -.111027E-2
MEAN_MOTION_DDOT = 0

CCSDS_OMM_VERS = 2.0
CREATION_DATE  = 
ORIGINATOR     = 

OBJECT_NAME    = STARLINK-36607
OBJECT_ID      = 2026-020D
CENTER_NAME    = EARTH
REF_FRAME      = TEME
TIME_SYSTEM    = UTC
MEAN_ELEMENT_THEORY = SGP/SGP4

EPOCH          = 2026-02-09T06:00:02.000160
MEAN_MOTION    = 15.81969900
ECCENTRICITY   = .00019611
INCLINATION    = 42.9991
RA_OF_ASC_NODE = 315.1325
ARG_OF_PERICENTER = 275.1575
MEAN_ANOMALY   = 179.6894

EPHEMERIS_TYPE = 0
CLASSIFICATION_TYPE = U
NORAD_CAT_ID   = 67620
ELEMENT_SET_NO = 999
REV_AT_EPOCH   = 282
BSTAR          = .46155368E-3
MEAN_MOTION_DOT = .97546E-3
MEAN_MOTION_DDOT = 0

CCSDS_OMM_VERS = 2.0
CREATION_DATE  = 
ORIGINATOR     = 

OBJECT_NAME    = STARLINK-36615
OBJECT_ID      = 2026-020E
CENTER_NAME    = EARTH
REF_FRAME      = TEME
TIME_SYSTEM    = UTC
MEAN_ELEMENT_THEORY = SGP/SGP4

EPOCH          = 2026-02-09T06:00:02.000160
MEAN_MOTION    = 15.81985826
ECCENTRICITY   = .00021285
INCLINATION    = 42.9991
RA_OF_ASC_NODE = 315.1421
ARG_OF_PERICENTER = 287.0438
MEAN_ANOMALY   = 164.0857

EPHEMERIS_TYPE = 0
CLASSIFICATION_TYPE = U
NORAD_CAT_ID   = 67621
ELEMENT_SET_NO = 999
REV_AT_EPOCH   = 282
BSTAR          = .27897485E-3
MEAN_MOTION_DOT = .58526E-3
MEAN_MOTION_DDOT = 0

CCSDS_OMM_VERS = 2.0
CREATION_DATE  = 
ORIGINATOR     = 

OBJECT_NAME    = STARLINK-36614
OBJECT_ID      = 2026-020F
CENTER_NAME    = EARTH
REF_FRAME      = TEME
TIME_SYSTEM    = UTC
MEAN_ELEMENT_THEORY = SGP/SGP4

EPOCH          = 2026-02-09T06:00:02.000160
MEAN_MOTION    = 15.81968151
ECCENTRICITY   = .0001865
INCLINATION    = 42.9991
RA_OF_ASC_NODE = 315.1250
ARG_OF_PERICENTER = 275.2344
MEAN_ANOMALY   = 182.7517

EPHEMERIS_TYPE = 0
CLASSIFICATION_TYPE = U
NORAD_CAT_ID   = 67622
ELEMENT_SET_NO = 999
REV_AT_EPOCH   = 282
BSTAR          = .45632225E-3
MEAN_MOTION_DOT = .96413E-3
MEAN_MOTION_DDOT = 0

CCSDS_OMM_VERS = 2.0
CREATION_DATE  = 
ORIGINATOR     = 

OBJECT_NAME    = STARLINK-36600
OBJECT_ID      = 2026-020G
CENTER_NAME    = EARTH
REF_FRAME      = TEME
TIME_SYSTEM    = UTC
MEAN_ELEMENT_THEORY = SGP/SGP4

EPOCH          = 2026-02-09T06:00:02.000160
MEAN_MOTION    = 15.82240401
ECCENTRICITY   = .00012366
INCLINATION    = 42.9991
RA_OF_ASC_NODE = 315.1155
ARG_OF_PERICENTER = 289.4809
MEAN_ANOMALY   = 172.3133

EPHEMERIS_TYPE = 0
CLASSIFICATION_TYPE = U
NORAD_CAT_ID   = 67623
ELEMENT_SET_NO = 999
REV_AT_EPOCH   = 282
BSTAR          = -.36775937E-2
MEAN_MOTION_DOT = -.721115E-2
MEAN_MOTION_DDOT = 0

CCSDS_OMM_VERS = 2.0
CREATION_DATE  = 
ORIGINATOR     = 

OBJECT_NAME    = STARLINK-36439
OBJECT_ID      = 2026-020H
CENTER_NAME    = EARTH
REF_FRAME      = TEME
TIME_SYSTEM    = UTC
MEAN_ELEMENT_THEORY = SGP/SGP4

EPOCH          = 2026-02-09T06:00:02.000160
MEAN_MOTION    = 15.82014191
ECCENTRICITY   = .00014448
INCLINATION    = 42.9990
RA_OF_ASC_NODE = 315.1056
ARG_OF_PERICENTER = 294.3019
MEAN_ANOMALY   = 171.3787

EPHEMERIS_TYPE = 0
CLASSIFICATION_TYPE = U
NORAD_CAT_ID   = 67624
ELEMENT_SET_NO = 999
REV_AT_EPOCH   = 282
BSTAR          = .29186672E-3
MEAN_MOTION_DOT = .61354E-3
MEAN_MOTION_DDOT = 0

