STARLINK-36597          
1 67613U 26018AA  26040.25002315 -.01681298  00000+0 -72879-2 0  9991
2 67613  97.2748 104.6243 0001652  74.2536 119.1016 15.87622987  2784
NEONSAT-1A              
1 67614U 26019A   26040.30697336  .00003999  00000+0  26653-3 0  9995
2 67614  97.4083 164.9080 0012026 271.8478  88.1373 15.07580624  1541
ELECTRON R/B            
1 67615U 26019B   26040.39179535  .03992744  21518-5  14517-2 0  9997
2 67615  97.4236 166.2645 0124407 190.3164 169.5565 16.08533771  1638
ELECTRON KICK STAGE R/B 
1 67616U 26019C   26040.31006221  .00366189  38414-4  18873-2 0  9997
2 67616  97.4053 165.6630 0190026 225.2776 133.2877 15.59499129  1592
STARLINK-36548          
1 67617U 26020A   26040.25002315 -.02012029  00000+0 -10918-1 0  9994
2 67617  42.9990 315.1665 0001771 286.1057 155.6379 15.82248113  2827
STARLINK-36601          
1 67618U 26020B   26040.25002315  .00033335  00000+0  16029-3 0  9995
2 67618  42.9989 315.1583 0001808 269.4537 175.2743 15.82008048  2827
STARLINK-36119          
1 67619U 26020C   26040.25002315 -.00111027  00000+0 -53063-3 0  9992
2 67619  42.9990 315.1528 0001399 283.3694 163.5045 15.82051612  2823
STARLINK-36607          
1 67620U 26020D   26040.25002315  .00097546  00000+0  46155-3 0  9995
2 67620  42.9991 315.1325 0001961 275.1575 179.6894 15.81969900  2820
STARLINK-36615          
1 67621U 26020E   26040.25002315  .00058526  00000+0  27897-3 0  9993
2 67621  42.9991 315.1421 0002128 287.0438 164.0857 15.81985826  2826
STARLINK-36614          
1 67622U 26020F   26040.25002315  .00096413  00000+0  45632-3 0  9998
2 67622  42.9991 315.1250 0001865 275.2344 182.7517 15.81968151  2821
STARLINK-36600          
1 67623U 26020G   26040.25002315 -.00721115  00000+0 -36776-2 0  9993
2 67623  42.9991 315.1155 0001236 289.4809 172.3133 15.82240401  2822
STARLINK-36439          
1 67624U 26020H   26040.25002315  .00061354  00000+0  29187-3 0  9993
2 67624  42.9990 315.1056 0001444 294.3019 171.3787 15.82014191  2820
